{
  "type": "FeatureCollection",
  "features": [
    {
      "type": "Feature",
      "properties": {
        "norad_id": 38091,
        "name": "BEIDOU-2 G5 (C05)",
        "group": "gnss",
        "lat": -0.335682270409031,
        "lon": 64.15752205605997,
        "alt_km": 35816.05692809267,
        "timestamp": "2025-12-13T18:50:04.672914+00:00",
        "meta_object_name": "BEIDOU-2 G5 (C05)",
        "meta_object_id": "2012-008A",
        "meta_epoch": "2025-12-13T03:27:21.712320",
        "meta_mean_motion": 1.00275839,
        "meta_eccentricity": 0.00125761,
        "meta_inclination": 3.1106,
        "meta_ra_of_asc_node": 70.7104,
        "meta_arg_of_pericenter": 227.6994,
        "meta_mean_anomaly": 254.3073,
        "meta_ephemeris_type": 0,
        "meta_classification_type": "U",
        "meta_norad_cat_id": 38091,
        "meta_element_set_no": 999,
        "meta_rev_at_epoch": 5050,
        "meta_bstar": 0,
        "meta_mean_motion_dot": 6.8e-07,
        "meta_mean_motion_ddot": 0,
        "tle_line1": "1 38091U 12008A   25347.14400130  .00000068  00000+0  00000+0 0  9998",
        "tle_line2": "2 38091   3.1106  70.7104 0012576 227.6994 254.3073  1.00275839 50502"
      },
      "geometry": {
        "type": "Point",
        "coordinates": [
          64.15752205605997,
          -0.335682270409031
        ]
      }
    },
    {
      "type": "Feature",
      "properties": {
        "norad_id": 38250,
        "name": "BEIDOU-2 M3 (C11)",
        "group": "gnss",
        "lat": -53.76268988595367,
        "lon": -161.4909047662936,
        "alt_km": 21469.159467322363,
        "timestamp": "2025-12-13T18:50:04.672926+00:00",
        "meta_object_name": "BEIDOU-2 M3 (C11)",
        "meta_object_id": "2012-018A",
        "meta_epoch": "2025-12-12T20:44:25.859616",
        "meta_mean_motion": 1.86229754,
        "meta_eccentricity": 0.00243187,
        "meta_inclination": 55.9198,
        "meta_ra_of_asc_node": 311.1526,
        "meta_arg_of_pericenter": 274.2431,
        "meta_mean_anomaly": 85.469,
        "meta_ephemeris_type": 0,
        "meta_classification_type": "U",
        "meta_norad_cat_id": 38250,
        "meta_element_set_no": 999,
        "meta_rev_at_epoch": 9247,
        "meta_bstar": 0,
        "meta_mean_motion_dot": -9.2e-07,
        "meta_mean_motion_ddot": 0,
        "tle_line1": "1 38250U 12018A   25346.86418819 -.00000092  00000+0  00000+0 0  9995",
        "tle_line2": "2 38250  55.9198 311.1526 0024318 274.2431  85.4690  1.86229754 92475"
      },
      "geometry": {
        "type": "Point",
        "coordinates": [
          -161.4909047662936,
          -53.76268988595367
        ]
      }
    },
    {
      "type": "Feature",
      "properties": {
        "norad_id": 38251,
        "name": "BEIDOU-2 M4 (C12)",
        "group": "gnss",
        "lat": -44.14025714608599,
        "lon": -90.89402675502866,
        "alt_km": 21494.108223683546,
        "timestamp": "2025-12-13T18:50:04.672938+00:00",
        "meta_object_name": "BEIDOU-2 M4 (C12)",
        "meta_object_id": "2012-018B",
        "meta_epoch": "2025-12-12T06:13:22.160064",
        "meta_mean_motion": 1.86229301,
        "meta_eccentricity": 0.0015548,
        "meta_inclination": 55.8219,
        "meta_ra_of_asc_node": 310.4024,
        "meta_arg_of_pericenter": 277.1255,
        "meta_mean_anomaly": 82.6882,
        "meta_ephemeris_type": 0,
        "meta_classification_type": "U",
        "meta_norad_cat_id": 38251,
        "meta_element_set_no": 999,
        "meta_rev_at_epoch": 9246,
        "meta_bstar": 0,
        "meta_mean_motion_dot": -9e-07,
        "meta_mean_motion_ddot": 0,
        "tle_line1": "1 38251U 12018B   25346.25928426 -.00000090  00000+0  00000+0 0  9997",
        "tle_line2": "2 38251  55.8219 310.4024 0015548 277.1255  82.6882  1.86229301 92464"
      },
      "geometry": {
        "type": "Point",
        "coordinates": [
          -90.89402675502866,
          -44.14025714608599
        ]
      }
    },
    {
      "type": "Feature",
      "properties": {
        "norad_id": 38652,
        "name": "SES-5 (EGNOS/PRN 136)",
        "group": "gnss",
        "lat": 0.060274920248557774,
        "lon": 10.217094473225037,
        "alt_km": 35789.12682068933,
        "timestamp": "2025-12-13T18:50:04.672951+00:00",
        "meta_object_name": "SES-5 (EGNOS/PRN 136)",
        "meta_object_id": "2012-036A",
        "meta_epoch": "2025-12-12T13:30:18.514656",
        "meta_mean_motion": 1.00270732,
        "meta_eccentricity": 0.00020933,
        "meta_inclination": 0.0553,
        "meta_ra_of_asc_node": 306.3016,
        "meta_arg_of_pericenter": 315.2407,
        "meta_mean_anomaly": 27.5172,
        "meta_ephemeris_type": 0,
        "meta_classification_type": "U",
        "meta_norad_cat_id": 38652,
        "meta_element_set_no": 999,
        "meta_rev_at_epoch": 4259,
        "meta_bstar": 0,
        "meta_mean_motion_dot": 4.5e-07,
        "meta_mean_motion_ddot": 0,
        "tle_line1": "1 38652U 12036A   25346.56271429  .00000045  00000+0  00000+0 0  9999",
        "tle_line2": "2 38652   0.0553 306.3016 0002093 315.2407  27.5172  1.00270732 42590"
      },
      "geometry": {
        "type": "Point",
        "coordinates": [
          10.217094473225037,
          0.060274920248557774
        ]
      }
    },
    {
      "type": "Feature",
      "properties": {
        "norad_id": 38775,
        "name": "BEIDOU-2 M6 (C14)",
        "group": "gnss",
        "lat": 34.86508325766903,
        "lon": -138.53584319919185,
        "alt_km": 21551.33376463562,
        "timestamp": "2025-12-13T18:50:04.672966+00:00",
        "meta_object_name": "BEIDOU-2 M6 (C14)",
        "meta_object_id": "2012-050B",
        "meta_epoch": "2025-12-11T10:23:51.015840",
        "meta_mean_motion": 1.86230797,
        "meta_eccentricity": 0.00111593,
        "meta_inclination": 56.3773,
        "meta_ra_of_asc_node": 69.1107,
        "meta_arg_of_pericenter": 344.6089,
        "meta_mean_anomaly": 15.3783,
        "meta_ephemeris_type": 0,
        "meta_classification_type": "U",
        "meta_norad_cat_id": 38775,
        "meta_element_set_no": 999,
        "meta_rev_at_epoch": 8981,
        "meta_bstar": 0,
        "meta_mean_motion_dot": -6.3e-07,
        "meta_mean_motion_ddot": 0,
        "tle_line1": "1 38775U 12050B   25345.43322935 -.00000063  00000+0  00000+0 0  9996",
        "tle_line2": "2 38775  56.3773  69.1107 0011159 344.6089  15.3783  1.86230797 89814"
      },
      "geometry": {
        "type": "Point",
        "coordinates": [
          -138.53584319919185,
          34.86508325766903
        ]
      }
    },
    {
      "type": "Feature",
      "properties": {
        "norad_id": 38779,
        "name": "GSAT-10 (GAGAN/PRN 128)",
        "group": "gnss",
        "lat": 0.013493860490436459,
        "lon": 88.21054390643941,
        "alt_km": 35778.04012867496,
        "timestamp": "2025-12-13T18:50:04.672978+00:00",
        "meta_object_name": "GSAT-10 (GAGAN/PRN 128)",
        "meta_object_id": "2012-051B",
        "meta_epoch": "2025-12-13T03:34:21.041760",
        "meta_mean_motion": 1.00273084,
        "meta_eccentricity": 0.00024813,
        "meta_inclination": 0.0884,
        "meta_ra_of_asc_node": 266.2122,
        "meta_arg_of_pericenter": 224.6822,
        "meta_mean_anomaly": 87.7821,
        "meta_ephemeris_type": 0,
        "meta_classification_type": "U",
        "meta_norad_cat_id": 38779,
        "meta_element_set_no": 999,
        "meta_rev_at_epoch": 4823,
        "meta_bstar": 0,
        "meta_mean_motion_dot": -1.52e-06,
        "meta_mean_motion_ddot": 0,
        "tle_line1": "1 38779U 12051B   25347.14885465 -.00000152  00000+0  00000+0 0  9992",
        "tle_line2": "2 38779   0.0884 266.2122 0002481 224.6822  87.7821  1.00273084 48233"
      },
      "geometry": {
        "type": "Point",
        "coordinates": [
          88.21054390643941,
          0.013493860490436459
        ]
      }
    },
    {
      "type": "Feature",
      "properties": {
        "norad_id": 38833,
        "name": "GPS BIIF-3  (PRN 24)",
        "group": "gnss",
        "lat": -35.3278166972157,
        "lon": 119.59824604770283,
        "alt_km": 20338.800974076643,
        "timestamp": "2025-12-13T18:50:04.672993+00:00",
        "meta_object_name": "GPS BIIF-3  (PRN 24)",
        "meta_object_id": "2012-053A",
        "meta_epoch": "2025-12-12T20:25:41.380896",
        "meta_mean_motion": 2.00565025,
        "meta_eccentricity": 0.01758679,
        "meta_inclination": 53.5578,
        "meta_ra_of_asc_node": 151.234,
        "meta_arg_of_pericenter": 63.9869,
        "meta_mean_anomaly": 297.8174,
        "meta_ephemeris_type": 0,
        "meta_classification_type": "U",
        "meta_norad_cat_id": 38833,
        "meta_element_set_no": 999,
        "meta_rev_at_epoch": 9570,
        "meta_bstar": 0,
        "meta_mean_motion_dot": 9.1e-07,
        "meta_mean_motion_ddot": 0,
        "tle_line1": "1 38833U 12053A   25346.85117339  .00000091  00000+0  00000+0 0  9991",
        "tle_line2": "2 38833  53.5578 151.2340 0175867  63.9869 297.8174  2.00565025 95705"
      },
      "geometry": {
        "type": "Point",
        "coordinates": [
          119.59824604770283,
          -35.3278166972157
        ]
      }
    }
  ]
}